STARLINK-36817          
1 67882U 26035D   26064.58335648 -.01038648  33959-3 -24522-2 0  9998
2 67882  97.2752 356.6096 0001175  86.0096 351.5827 15.96827608  3098
STARLINK-36856          
1 67883U 26035E   26064.58335648 -.01032612  33565-3 -24486-2 0  9996
2 67883  97.2757 356.6081 0001013  84.1387 349.5267 15.96747160  3090
STARLINK-36842          
1 67884U 26035F   26064.58335648 -.01039167  34018-3 -24432-2 0  9994
2 67884  97.2752 356.6112 0001149  87.1619 354.1139 15.96904524  3091
STARLINK-36826          
1 67885U 26035G   26064.58335648 -.01042560  34253-3 -24407-2 0  9999
2 67885  97.2751 356.6127 0001165 101.0115 343.2450 15.96984209  3095
STARLINK-36390          
1 67886U 26035H   26064.58335648 -.01039984  34126-3 -24242-2 0  9992
2 67886  97.2748 356.6141 0001113  81.5393   7.1524 15.97062534  3144
STARLINK-36368          
1 67887U 26035J   26064.58335648 -.01042834  34331-3 -24197-2 0  9998
2 67887  97.2746 356.6159 0001257  90.7239   2.1932 15.97147095  3090
STARLINK-36801          
1 67888U 26035K   26064.58335648 -.01040054  34193-3 -24018-2 0  9999
2 67888  97.2743 356.6175 0001147 102.5480 354.4556 15.97234082  3092
STARLINK-36372          
1 67889U 26035L   26064.58335648 -.01043445  34464-3 -23870-2 0  9993
2 67889  97.2737 356.6206 0001218 106.8661 357.9865 15.97407119  3092
STARLINK-36363          
1 67890U 26035M   26064.58335648 -.01045879  34580-3 -24045-2 0  9992
2 67890  97.2742 356.6197 0001232  95.8657   5.7188 15.97316378  3099
STARLINK-36816          
1 67891U 26035N   26064.58335648 -.01244874  48305-3 -26993-2 0  9993
2 67891  97.2727 356.6436 0001296  84.4944  79.2693 15.98408688  2983
STARLINK-36813          
1 67892U 26035P   26064.58335648 -.01235276  47392-3 -27438-2 0  9990
2 67892  97.2720 356.6325 0001282  87.7058  49.7296 15.97971228  3099
STARLINK-36803          
1 67893U 26035Q   26064.58335648 -.01095669  37769-3 -24937-2 0  9999
2 67893  97.2736 356.6225 0001263  96.5007  13.2374 15.97507573  3098
STARLINK-36846          
1 67894U 26035R   26064.58335648 -.01202937  44985-3 -27127-2 0  9990
2 67894  97.2733 356.6266 0001447 105.7685  13.9689 15.97690726  3099
STARLINK-36866          
1 67895U 26035S   26064.58335648 -.01210959  45574-3 -27214-2 0  9996
2 67895  97.2731 356.6284 0001280  75.5349  48.6058 15.97755154  3096
STARLINK-36877          
1 67896U 26035T   26064.58335648 -.01167147  42503-3 -26432-2 0  9997
2 67896  97.2733 356.6245 0001312  93.4542  21.4790 15.97608386  3092
STARLINK-36870          
1 67897U 26035U   26064.58335648 -.01228163  46817-3 -27489-2 0  9999
2 67897  97.2728 356.6301 0001338  88.3205  40.7926 15.97831441  3092
