[{"OBJECT_NAME":"STARLINK-36817","OBJECT_ID":"2026-035D","EPOCH":"2026-03-05T14:00:01.999872","MEAN_MOTION":15.96827608,"ECCENTRICITY":0.0001175,"INCLINATION":97.2752,"RA_OF_ASC_NODE":356.6096,"ARG_OF_PERICENTER":86.0096,"MEAN_ANOMALY":351.5827,"EPHEMERIS_TYPE":0,"CLASSIFICATION_TYPE":"U","NORAD_CAT_ID":67882,"ELEMENT_SET_NO":999,"REV_AT_EPOCH":309,"BSTAR":-0.0024522457,"MEAN_MOTION_DOT":-0.01038648,"MEAN_MOTION_DDOT":0.00033958584},{"OBJECT_NAME":"STARLINK-36856","OBJECT_ID":"2026-035E","EPOCH":"2026-03-05T14:00:01.999872","MEAN_MOTION":15.9674716,"ECCENTRICITY":0.00010137,"INCLINATION":97.2757,"RA_OF_ASC_NODE":356.6081,"ARG_OF_PERICENTER":84.1387,"MEAN_ANOMALY":349.5267,"EPHEMERIS_TYPE":0,"CLASSIFICATION_TYPE":"U","NORAD_CAT_ID":67883,"ELEMENT_SET_NO":999,"REV_AT_EPOCH":309,"BSTAR":-0.0024486043,"MEAN_MOTION_DOT":-0.01032612,"MEAN_MOTION_DDOT":0.00033564637},{"OBJECT_NAME":"STARLINK-36842","OBJECT_ID":"2026-035F","EPOCH":"2026-03-05T14:00:01.999872","MEAN_MOTION":15.96904524,"ECCENTRICITY":0.0001149,"INCLINATION":97.2752,"RA_OF_ASC_NODE":356.6112,"ARG_OF_PERICENTER":87.1619,"MEAN_ANOMALY":354.1139,"EPHEMERIS_TYPE":0,"CLASSIFICATION_TYPE":"U","NORAD_CAT_ID":67884,"ELEMENT_SET_NO":999,"REV_AT_EPOCH":309,"BSTAR":-0.0024432487,"MEAN_MOTION_DOT":-0.01039167,"MEAN_MOTION_DDOT":0.00034018186},{"OBJECT_NAME":"STARLINK-36826","OBJECT_ID":"2026-035G","EPOCH":"2026-03-05T14:00:01.999872","MEAN_MOTION":15.96984209,"ECCENTRICITY":0.00011653,"INCLINATION":97.2751,"RA_OF_ASC_NODE":356.6127,"ARG_OF_PERICENTER":101.0115,"MEAN_ANOMALY":343.245,"EPHEMERIS_TYPE":0,"CLASSIFICATION_TYPE":"U","NORAD_CAT_ID":67885,"ELEMENT_SET_NO":999,"REV_AT_EPOCH":309,"BSTAR":-0.0024406772,"MEAN_MOTION_DOT":-0.0104256,"MEAN_MOTION_DDOT":0.00034253415},{"OBJECT_NAME":"STARLINK-36390","OBJECT_ID":"2026-035H","EPOCH":"2026-03-05T14:00:01.999872","MEAN_MOTION":15.97062534,"ECCENTRICITY":0.00011131,"INCLINATION":97.2748,"RA_OF_ASC_NODE":356.6141,"ARG_OF_PERICENTER":81.5393,"MEAN_ANOMALY":7.1524,"EPHEMERIS_TYPE":0,"CLASSIFICATION_TYPE":"U","NORAD_CAT_ID":67886,"ELEMENT_SET_NO":999,"REV_AT_EPOCH":314,"BSTAR":-0.0024242441,"MEAN_MOTION_DOT":-0.01039984,"MEAN_MOTION_DDOT":0.00034125918},{"OBJECT_NAME":"STARLINK-36368","OBJECT_ID":"2026-035J","EPOCH":"2026-03-05T14:00:01.999872","MEAN_MOTION":15.97147095,"ECCENTRICITY":0.00012576,"INCLINATION":97.2746,"RA_OF_ASC_NODE":356.6159,"ARG_OF_PERICENTER":90.7239,"MEAN_ANOMALY":2.1932,"EPHEMERIS_TYPE":0,"CLASSIFICATION_TYPE":"U","NORAD_CAT_ID":67887,"ELEMENT_SET_NO":999,"REV_AT_EPOCH":309,"BSTAR":-0.0024197129,"MEAN_MOTION_DOT":-0.01042834,"MEAN_MOTION_DDOT":0.00034330554},{"OBJECT_NAME":"STARLINK-36801","OBJECT_ID":"2026-035K","EPOCH":"2026-03-05T14:00:01.999872","MEAN_MOTION":15.97234082,"ECCENTRICITY":0.00011473,"INCLINATION":97.2743,"RA_OF_ASC_NODE":356.6175,"ARG_OF_PERICENTER":102.548,"MEAN_ANOMALY":354.4556,"EPHEMERIS_TYPE":0,"CLASSIFICATION_TYPE":"U","NORAD_CAT_ID":67888,"ELEMENT_SET_NO":999,"REV_AT_EPOCH":309,"BSTAR":-0.0024018123,"MEAN_MOTION_DOT":-0.01040054,"MEAN_MOTION_DDOT":0.00034192962},{"OBJECT_NAME":"STARLINK-36372","OBJECT_ID":"2026-035L","EPOCH":"2026-03-05T14:00:01.999872","MEAN_MOTION":15.97407119,"ECCENTRICITY":0.00012182,"INCLINATION":97.2737,"RA_OF_ASC_NODE":356.6206,"ARG_OF_PERICENTER":106.8661,"MEAN_ANOMALY":357.9865,"EPHEMERIS_TYPE":0,"CLASSIFICATION_TYPE":"U","NORAD_CAT_ID":67889,"ELEMENT_SET_NO":999,"REV_AT_EPOCH":309,"BSTAR":-0.0023869942,"MEAN_MOTION_DOT":-0.01043445,"MEAN_MOTION_DDOT":0.00034464245},{"OBJECT_NAME":"STARLINK-36363","OBJECT_ID":"2026-035M","EPOCH":"2026-03-05T14:00:01.999872","MEAN_MOTION":15.97316378,"ECCENTRICITY":0.00012322,"INCLINATION":97.2742,"RA_OF_ASC_NODE":356.6197,"ARG_OF_PERICENTER":95.8657,"MEAN_ANOMALY":5.7188,"EPHEMERIS_TYPE":0,"CLASSIFICATION_TYPE":"U","NORAD_CAT_ID":67890,"ELEMENT_SET_NO":999,"REV_AT_EPOCH":309,"BSTAR":-0.0024045074,"MEAN_MOTION_DOT":-0.01045879,"MEAN_MOTION_DDOT":0.00034579637},{"OBJECT_NAME":"STARLINK-36816","OBJECT_ID":"2026-035N","EPOCH":"2026-03-05T14:00:01.999872","MEAN_MOTION":15.98408688,"ECCENTRICITY":0.00012966,"INCLINATION":97.2727,"RA_OF_ASC_NODE":356.6436,"ARG_OF_PERICENTER":84.4944,"MEAN_ANOMALY":79.2693,"EPHEMERIS_TYPE":0,"CLASSIFICATION_TYPE":"U","NORAD_CAT_ID":67891,"ELEMENT_SET_NO":999,"REV_AT_EPOCH":298,"BSTAR":-0.0026992576,"MEAN_MOTION_DOT":-0.01244874,"MEAN_MOTION_DDOT":0.00048304862},{"OBJECT_NAME":"STARLINK-36813","OBJECT_ID":"2026-035P","EPOCH":"2026-03-05T14:00:01.999872","MEAN_MOTION":15.97971228,"ECCENTRICITY":0.00012825,"INCLINATION":97.272,"RA_OF_ASC_NODE":356.6325,"ARG_OF_PERICENTER":87.7058,"MEAN_ANOMALY":49.7296,"EPHEMERIS_TYPE":0,"CLASSIFICATION_TYPE":"U","NORAD_CAT_ID":67892,"ELEMENT_SET_NO":999,"REV_AT_EPOCH":309,"BSTAR":-0.0027437644,"MEAN_MOTION_DOT":-0.01235276,"MEAN_MOTION_DDOT":0.00047392027},{"OBJECT_NAME":"STARLINK-36803","OBJECT_ID":"2026-035Q","EPOCH":"2026-03-05T14:00:01.999872","MEAN_MOTION":15.97507573,"ECCENTRICITY":0.00012639,"INCLINATION":97.2736,"RA_OF_ASC_NODE":356.6225,"ARG_OF_PERICENTER":96.5007,"MEAN_ANOMALY":13.2374,"EPHEMERIS_TYPE":0,"CLASSIFICATION_TYPE":"U","NORAD_CAT_ID":67893,"ELEMENT_SET_NO":999,"REV_AT_EPOCH":309,"BSTAR":-0.0024937119,"MEAN_MOTION_DOT":-0.01095669,"MEAN_MOTION_DDOT":0.00037769084},{"OBJECT_NAME":"STARLINK-36846","OBJECT_ID":"2026-035R","EPOCH":"2026-03-05T14:00:01.999872","MEAN_MOTION":15.97690726,"ECCENTRICITY":0.00014476,"INCLINATION":97.2733,"RA_OF_ASC_NODE":356.6266,"ARG_OF_PERICENTER":105.7685,"MEAN_ANOMALY":13.9689,"EPHEMERIS_TYPE":0,"CLASSIFICATION_TYPE":"U","NORAD_CAT_ID":67894,"ELEMENT_SET_NO":999,"REV_AT_EPOCH":309,"BSTAR":-0.0027127135,"MEAN_MOTION_DOT":-0.01202937,"MEAN_MOTION_DDOT":0.00044985184},{"OBJECT_NAME":"STARLINK-36866","OBJECT_ID":"2026-035S","EPOCH":"2026-03-05T14:00:01.999872","MEAN_MOTION":15.97755154,"ECCENTRICITY":0.00012801,"INCLINATION":97.2731,"RA_OF_ASC_NODE":356.6284,"ARG_OF_PERICENTER":75.5349,"MEAN_ANOMALY":48.6058,"EPHEMERIS_TYPE":0,"CLASSIFICATION_TYPE":"U","NORAD_CAT_ID":67895,"ELEMENT_SET_NO":999,"REV_AT_EPOCH":309,"BSTAR":-0.0027213909,"MEAN_MOTION_DOT":-0.01210959,"MEAN_MOTION_DDOT":0.00045574189},{"OBJECT_NAME":"STARLINK-36877","OBJECT_ID":"2026-035T","EPOCH":"2026-03-05T14:00:01.999872","MEAN_MOTION":15.97608386,"ECCENTRICITY":0.00013127,"INCLINATION":97.2733,"RA_OF_ASC_NODE":356.6245,"ARG_OF_PERICENTER":93.4542,"MEAN_ANOMALY":21.479,"EPHEMERIS_TYPE":0,"CLASSIFICATION_TYPE":"U","NORAD_CAT_ID":67896,"ELEMENT_SET_NO":999,"REV_AT_EPOCH":309,"BSTAR":-0.0026432267,"MEAN_MOTION_DOT":-0.01167147,"MEAN_MOTION_DDOT":0.00042502704},{"OBJECT_NAME":"STARLINK-36870","OBJECT_ID":"2026-035U","EPOCH":"2026-03-05T14:00:01.999872","MEAN_MOTION":15.97831441,"ECCENTRICITY":0.0001338,"INCLINATION":97.2728,"RA_OF_ASC_NODE":356.6301,"ARG_OF_PERICENTER":88.3205,"MEAN_ANOMALY":40.7926,"EPHEMERIS_TYPE":0,"CLASSIFICATION_TYPE":"U","NORAD_CAT_ID":67897,"ELEMENT_SET_NO":999,"REV_AT_EPOCH":309,"BSTAR":-0.0027488581,"MEAN_MOTION_DOT":-0.01228163,"MEAN_MOTION_DDOT":0.00046817445}]
